[{"OBJECT_NAME":"ONEWEB-0212","OBJECT_ID":"2021-045AA","EPOCH":"2025-08-02T07:14:12.117696","MEAN_MOTION":13.15549619,"ECCENTRICITY":0.000186,"INCLINATION":87.9078,"RA_OF_ASC_NODE":322.772,"ARG_OF_PERICENTER":98.1095,"MEAN_ANOMALY":262.0246,"EPHEMERIS_TYPE":0,"CLASSIFICATION_TYPE":"U","NORAD_CAT_ID":48791,"ELEMENT_SET_NO":999,"REV_AT_EPOCH":20250,"BSTAR":0.00039609,"MEAN_MOTION_DOT":1.62e-6,"MEAN_MOTION_DDOT":0},{"OBJECT_NAME":"ONEWEB-0227","OBJECT_ID":"2021-045AB","EPOCH":"2025-08-02T14:31:08.100768","MEAN_MOTION":13.1554842,"ECCENTRICITY":0.0001969,"INCLINATION":87.9079,"RA_OF_ASC_NODE":322.7312,"ARG_OF_PERICENTER":95.0917,"MEAN_ANOMALY":265.0438,"EPHEMERIS_TYPE":0,"CLASSIFICATION_TYPE":"U","NORAD_CAT_ID":48792,"ELEMENT_SET_NO":999,"REV_AT_EPOCH":20362,"BSTAR":0.00039178,"MEAN_MOTION_DOT":1.6e-6,"MEAN_MOTION_DDOT":0},{"OBJECT_NAME":"ONEWEB-0226","OBJECT_ID":"2021-045AC","EPOCH":"2025-08-02T14:22:00.578784","MEAN_MOTION":13.1555017,"ECCENTRICITY":0.0002261,"INCLINATION":87.9084,"RA_OF_ASC_NODE":322.737,"ARG_OF_PERICENTER":93.4685,"MEAN_ANOMALY":266.6704,"EPHEMERIS_TYPE":0,"CLASSIFICATION_TYPE":"U","NORAD_CAT_ID":48793,"ELEMENT_SET_NO":999,"REV_AT_EPOCH":20246,"BSTAR":0.0003552,"MEAN_MOTION_DOT":1.47e-6,"MEAN_MOTION_DDOT":0},{"OBJECT_NAME":"ONEWEB-0224","OBJECT_ID":"2021-045AD","EPOCH":"2025-08-02T15:19:02.798976","MEAN_MOTION":13.1561374,"ECCENTRICITY":9.91e-5,"INCLINATION":87.9078,"RA_OF_ASC_NODE":322.7664,"ARG_OF_PERICENTER":71.6074,"MEAN_ANOMALY":288.5164,"EPHEMERIS_TYPE":0,"CLASSIFICATION_TYPE":"U","NORAD_CAT_ID":48794,"ELEMENT_SET_NO":999,"REV_AT_EPOCH":20351,"BSTAR":-0.036215,"MEAN_MOTION_DOT":-0.00013614,"MEAN_MOTION_DDOT":0},{"OBJECT_NAME":"ONEWEB-0233","OBJECT_ID":"2021-045AE","EPOCH":"2025-08-02T15:25:42.621024","MEAN_MOTION":13.15489102,"ECCENTRICITY":0.0002394,"INCLINATION":87.9085,"RA_OF_ASC_NODE":322.7738,"ARG_OF_PERICENTER":94.3356,"MEAN_ANOMALY":265.8047,"EPHEMERIS_TYPE":0,"CLASSIFICATION_TYPE":"U","NORAD_CAT_ID":48795,"ELEMENT_SET_NO":999,"REV_AT_EPOCH":20352,"BSTAR":0.033831,"MEAN_MOTION_DOT":0.00012756,"MEAN_MOTION_DDOT":0},{"OBJECT_NAME":"ONEWEB-0190","OBJECT_ID":"2021-045AF","EPOCH":"2025-08-02T07:49:33.729312","MEAN_MOTION":13.15547688,"ECCENTRICITY":0.0002451,"INCLINATION":87.9085,"RA_OF_ASC_NODE":322.8011,"ARG_OF_PERICENTER":82.032,"MEAN_ANOMALY":278.1089,"EPHEMERIS_TYPE":0,"CLASSIFICATION_TYPE":"U","NORAD_CAT_ID":48796,"ELEMENT_SET_NO":999,"REV_AT_EPOCH":20244,"BSTAR":-0.00038452,"MEAN_MOTION_DOT":-1.32e-6,"MEAN_MOTION_DDOT":0},{"OBJECT_NAME":"ONEWEB-0236","OBJECT_ID":"2021-045AG","EPOCH":"2025-08-02T15:32:45.037536","MEAN_MOTION":13.15550352,"ECCENTRICITY":0.0001849,"INCLINATION":87.9089,"RA_OF_ASC_NODE":322.7467,"ARG_OF_PERICENTER":101.2276,"MEAN_ANOMALY":258.9062,"EPHEMERIS_TYPE":0,"CLASSIFICATION_TYPE":"U","NORAD_CAT_ID":48797,"ELEMENT_SET_NO":999,"REV_AT_EPOCH":20349,"BSTAR":0.0019729,"MEAN_MOTION_DOT":7.56e-6,"MEAN_MOTION_DDOT":0},{"OBJECT_NAME":"ONEWEB-0248","OBJECT_ID":"2021-045AH","EPOCH":"2025-08-02T08:32:53.970144","MEAN_MOTION":13.15550659,"ECCENTRICITY":0.0001906,"INCLINATION":87.9083,"RA_OF_ASC_NODE":322.7592,"ARG_OF_PERICENTER":78.8874,"MEAN_ANOMALY":281.247,"EPHEMERIS_TYPE":0,"CLASSIFICATION_TYPE":"U","NORAD_CAT_ID":48798,"ELEMENT_SET_NO":999,"REV_AT_EPOCH":20249,"BSTAR":0.00016694,"MEAN_MOTION_DOT":7.6e-7,"MEAN_MOTION_DDOT":0},{"OBJECT_NAME":"ONEWEB-0225","OBJECT_ID":"2021-045AJ","EPOCH":"2025-08-02T09:04:50.299680","MEAN_MOTION":13.15546508,"ECCENTRICITY":0.0002306,"INCLINATION":87.9089,"RA_OF_ASC_NODE":322.7866,"ARG_OF_PERICENTER":84.0713,"MEAN_ANOMALY":276.068,"EPHEMERIS_TYPE":0,"CLASSIFICATION_TYPE":"U","NORAD_CAT_ID":48799,"ELEMENT_SET_NO":999,"REV_AT_EPOCH":20250,"BSTAR":8.8904e-5,"MEAN_MOTION_DOT":4.6e-7,"MEAN_MOTION_DDOT":0},{"OBJECT_NAME":"ONEWEB-0215","OBJECT_ID":"2021-045AK","EPOCH":"2025-08-02T13:50:03.998688","MEAN_MOTION":13.15548354,"ECCENTRICITY":0.0002168,"INCLINATION":87.9083,"RA_OF_ASC_NODE":322.6977,"ARG_OF_PERICENTER":79.3908,"MEAN_ANOMALY":280.7467,"EPHEMERIS_TYPE":0,"CLASSIFICATION_TYPE":"U","NORAD_CAT_ID":48800,"ELEMENT_SET_NO":999,"REV_AT_EPOCH":20240,"BSTAR":2.4045e-5,"MEAN_MOTION_DOT":2.2e-7,"MEAN_MOTION_DDOT":0},{"OBJECT_NAME":"ONEWEB-0216","OBJECT_ID":"2021-045AL","EPOCH":"2025-08-02T08:35:12.580800","MEAN_MOTION":13.15536646,"ECCENTRICITY":0.0002105,"INCLINATION":87.9078,"RA_OF_ASC_NODE":322.7866,"ARG_OF_PERICENTER":99.7298,"MEAN_ANOMALY":260.4071,"EPHEMERIS_TYPE":0,"CLASSIFICATION_TYPE":"U","NORAD_CAT_ID":48801,"ELEMENT_SET_NO":999,"REV_AT_EPOCH":20238,"BSTAR":-0.0030768,"MEAN_MOTION_DOT":-1.145e-5,"MEAN_MOTION_DDOT":0},{"OBJECT_NAME":"ONEWEB-0239","OBJECT_ID":"2021-045AM","EPOCH":"2025-08-02T08:42:02.522880","MEAN_MOTION":13.15547553,"ECCENTRICITY":0.0001965,"INCLINATION":87.9084,"RA_OF_ASC_NODE":322.7983,"ARG_OF_PERICENTER":74.0582,"MEAN_ANOMALY":286.0765,"EPHEMERIS_TYPE":0,"CLASSIFICATION_TYPE":"U","NORAD_CAT_ID":48802,"ELEMENT_SET_NO":999,"REV_AT_EPOCH":20242,"BSTAR":0.00020993,"MEAN_MOTION_DOT":9.2e-7,"MEAN_MOTION_DDOT":0},{"OBJECT_NAME":"ONEWEB-0249","OBJECT_ID":"2021-060A","EPOCH":"2025-08-02T13:10:18.842880","MEAN_MOTION":13.1659616,"ECCENTRICITY":0.0001946,"INCLINATION":87.9046,"RA_OF_ASC_NODE":292.2947,"ARG_OF_PERICENTER":96.6289,"MEAN_ANOMALY":263.5064,"EPHEMERIS_TYPE":0,"CLASSIFICATION_TYPE":"U","NORAD_CAT_ID":48967,"ELEMENT_SET_NO":999,"REV_AT_EPOCH":19768,"BSTAR":-0.00013053,"MEAN_MOTION_DOT":-3.7e-7,"MEAN_MOTION_DDOT":0},{"OBJECT_NAME":"ONEWEB-0250","OBJECT_ID":"2021-060B","EPOCH":"2025-08-02T12:41:46.877856","MEAN_MOTION":13.25810806,"ECCENTRICITY":0.0001307,"INCLINATION":87.9044,"RA_OF_ASC_NODE":291.0986,"ARG_OF_PERICENTER":73.7818,"MEAN_ANOMALY":286.3462,"EPHEMERIS_TYPE":0,"CLASSIFICATION_TYPE":"U","NORAD_CAT_ID":48968,"ELEMENT_SET_NO":999,"REV_AT_EPOCH":19799,"BSTAR":0.00010906,"MEAN_MOTION_DOT":6.1e-7,"MEAN_MOTION_DDOT":0},{"OBJECT_NAME":"ONEWEB-0252","OBJECT_ID":"2021-060D","EPOCH":"2025-08-02T06:38:10.626432","MEAN_MOTION":13.16595533,"ECCENTRICITY":0.0002308,"INCLINATION":87.9045,"RA_OF_ASC_NODE":292.3423,"ARG_OF_PERICENTER":102.9281,"MEAN_ANOMALY":257.2108,"EPHEMERIS_TYPE":0,"CLASSIFICATION_TYPE":"U","NORAD_CAT_ID":48970,"ELEMENT_SET_NO":999,"REV_AT_EPOCH":19769,"BSTAR":8.608e-5,"MEAN_MOTION_DOT":4.6e-7,"MEAN_MOTION_DDOT":0},{"OBJECT_NAME":"ONEWEB-0253","OBJECT_ID":"2021-060E","EPOCH":"2025-08-02T11:50:31.432704","MEAN_MOTION":13.16595605,"ECCENTRICITY":0.0002118,"INCLINATION":87.9043,"RA_OF_ASC_NODE":292.3027,"ARG_OF_PERICENTER":92.2498,"MEAN_ANOMALY":267.8875,"EPHEMERIS_TYPE":0,"CLASSIFICATION_TYPE":"U","NORAD_CAT_ID":48971,"ELEMENT_SET_NO":999,"REV_AT_EPOCH":19765,"BSTAR":2.6614e-5,"MEAN_MOTION_DOT":2.3e-7,"MEAN_MOTION_DDOT":0},{"OBJECT_NAME":"ONEWEB-0254","OBJECT_ID":"2021-060F","EPOCH":"2025-08-02T06:35:54.920544","MEAN_MOTION":13.16595257,"ECCENTRICITY":0.0002,"INCLINATION":87.9047,"RA_OF_ASC_NODE":292.3322,"ARG_OF_PERICENTER":85.2713,"MEAN_ANOMALY":274.8646,"EPHEMERIS_TYPE":0,"CLASSIFICATION_TYPE":"U","NORAD_CAT_ID":48972,"ELEMENT_SET_NO":999,"REV_AT_EPOCH":19762,"BSTAR":0.00013109,"MEAN_MOTION_DOT":6.3e-7,"MEAN_MOTION_DDOT":0}]
