ONEWEB-0212             
1 48791U 21045AA  25214.30152914  .00000162  00000+0  39609-3 0  9998
2 48791  87.9078 322.7720 0001860  98.1095 262.0246 13.15549619202505
ONEWEB-0227             
1 48792U 21045AB  25214.60495487  .00000160  00000+0  39178-3 0  9996
2 48792  87.9079 322.7312 0001969  95.0917 265.0438 13.15548420203622
ONEWEB-0226             
1 48793U 21045AC  25214.59861781  .00000147  00000+0  35520-3 0  9991
2 48793  87.9084 322.7370 0002261  93.4685 266.6704 13.15550170202462
ONEWEB-0224             
1 48794U 21045AD  25214.63822684 -.00013614  00000+0 -36215-1 0  9991
2 48794  87.9078 322.7664 0000991  71.6074 288.5164 13.15613740203513
ONEWEB-0233             
1 48795U 21045AE  25214.64285441  .00012756  00000+0  33831-1 0  9992
2 48795  87.9085 322.7738 0002394  94.3356 265.8047 13.15489102203520
ONEWEB-0190             
1 48796U 21045AF  25214.32608483 -.00000132  00000+0 -38452-3 0  9996
2 48796  87.9085 322.8011 0002451  82.0320 278.1089 13.15547688202442
ONEWEB-0236             
1 48797U 21045AG  25214.64774349  .00000756  00000+0  19729-2 0  9992
2 48797  87.9089 322.7467 0001849 101.2276 258.9062 13.15550352203490
ONEWEB-0248             
1 48798U 21045AH  25214.35618021  .00000076  00000+0  16694-3 0  9999
2 48798  87.9083 322.7592 0001906  78.8874 281.2470 13.15550659202492
ONEWEB-0225             
1 48799U 21045AJ  25214.37835995  .00000046  00000+0  88904-4 0  9994
2 48799  87.9089 322.7866 0002306  84.0713 276.0680 13.15546508202504
ONEWEB-0215             
1 48800U 21045AK  25214.57643517  .00000022  00000+0  24045-4 0  9996
2 48800  87.9083 322.6977 0002168  79.3908 280.7467 13.15548354202407
ONEWEB-0216             
1 48801U 21045AL  25214.35778450 -.00001145  00000+0 -30768-2 0  9994
2 48801  87.9078 322.7866 0002105  99.7298 260.4071 13.15536646202383
ONEWEB-0239             
1 48802U 21045AM  25214.36252920  .00000092  00000+0  20993-3 0  9993
2 48802  87.9084 322.7983 0001965  74.0582 286.0765 13.15547553202424
ONEWEB-0249             
1 48967U 21060A   25214.54882920 -.00000037  00000+0 -13053-3 0  9991
2 48967  87.9046 292.2947 0001946  96.6289 263.5064 13.16596160197680
ONEWEB-0250             
1 48968U 21060B   25214.52901479  .00000061  00000+0  10906-3 0  9990
2 48968  87.9044 291.0986 0001307  73.7818 286.3462 13.25810806197999
ONEWEB-0252             
1 48970U 21060D   25214.27651188  .00000046  00000+0  86080-4 0  9994
2 48970  87.9045 292.3423 0002308 102.9281 257.2108 13.16595533197692
ONEWEB-0253             
1 48971U 21060E   25214.49341936  .00000023  00000+0  26614-4 0  9998
2 48971  87.9043 292.3027 0002118  92.2498 267.8875 13.16595605197655
ONEWEB-0254             
1 48972U 21060F   25214.27494121  .00000063  00000+0  13109-3 0  9998
2 48972  87.9047 292.3322 0002000  85.2713 274.8646 13.16595257197624
